{
    "links": {
        "self": "http://www.neowsapp.com/rest/v1/neo/3986765?api_key=iIulBulltgU6a56xZRHN4H3l9WmuAYTsLGpBGhQ2"
    },
    "id": "3986765",
    "neo_reference_id": "3986765",
    "name": "(2020 BN1)",
    "designation": "2020 BN1",
    "nasa_jpl_url": "http://ssd.jpl.nasa.gov/sbdb.cgi?sstr=3986765",
    "absolute_magnitude_h": 27.459,
    "estimated_diameter": {
        "kilometers": {
            "estimated_diameter_min": 0.0085655445,
            "estimated_diameter_max": 0.0191531398
        },
        "meters": {
            "estimated_diameter_min": 8.5655445181,
            "estimated_diameter_max": 19.1531398068
        },
        "miles": {
            "estimated_diameter_min": 0.005322381,
            "estimated_diameter_max": 0.0119012056
        },
        "feet": {
            "estimated_diameter_min": 28.1021810768,
            "estimated_diameter_max": 62.8383872038
        }
    },
    "is_potentially_hazardous_asteroid": false,
    "close_approach_data": [
        {
            "close_approach_date": "1976-02-08",
            "close_approach_date_full": "1976-Feb-08 00:51",
            "epoch_date_close_approach": 192588660000,
            "relative_velocity": {
                "kilometers_per_second": "16.9388843282",
                "kilometers_per_hour": "60979.983581471",
                "miles_per_hour": "37890.5903537202"
            },
            "miss_distance": {
                "astronomical": "0.2537468879",
                "lunar": "98.7075393931",
                "kilometers": "37959993.948968773",
                "miles": "23587246.4847361474"
            },
            "orbiting_body": "Earth"
        },
        {
            "close_approach_date": "2013-02-15",
            "close_approach_date_full": "2013-Feb-15 03:31",
            "epoch_date_close_approach": 1360899060000,
            "relative_velocity": {
                "kilometers_per_second": "20.735781215",
                "kilometers_per_hour": "74648.8123740216",
                "miles_per_hour": "46383.8689998469"
            },
            "miss_distance": {
                "astronomical": "0.3830841617",
                "lunar": "149.0197389013",
                "kilometers": "57308574.621055579",
                "miles": "35609897.0166578302"
            },
            "orbiting_body": "Earth"
        },
        {
            "close_approach_date": "2020-01-17",
            "close_approach_date_full": "2020-Jan-17 12:54",
            "epoch_date_close_approach": 1579265640000,
            "relative_velocity": {
                "kilometers_per_second": "9.6656850057",
                "kilometers_per_hour": "34796.4660203548",
                "miles_per_hour": "21621.1707891477"
            },
            "miss_distance": {
                "astronomical": "0.0088069821",
                "lunar": "3.4259160369",
                "kilometers": "1317505.763288127",
                "miles": "818660.1195330726"
            },
            "orbiting_body": "Earth"
        },
        {
            "close_approach_date": "2020-01-17",
            "close_approach_date_full": "2020-Jan-17 15:59",
            "epoch_date_close_approach": 1579276740000,
            "relative_velocity": {
                "kilometers_per_second": "10.481429741",
                "kilometers_per_hour": "37733.147067712",
                "miles_per_hour": "23445.9101877125"
            },
            "miss_distance": {
                "astronomical": "0.0090262362",
                "lunar": "3.5112058818",
                "kilometers": "1350305.709636894",
                "miles": "839041.0611173772"
            },
            "orbiting_body": "Moon"
        },
        {
            "close_approach_date": "2100-10-02",
            "close_approach_date_full": "2100-Oct-02 01:52",
            "epoch_date_close_approach": 4126125120000,
            "relative_velocity": {
                "kilometers_per_second": "21.487404121",
                "kilometers_per_hour": "77354.6548355996",
                "miles_per_hour": "48065.1742782647"
            },
            "miss_distance": {
                "astronomical": "0.4458213053",
                "lunar": "173.4244877617",
                "kilometers": "66693917.673499711",
                "miles": "41441678.7661335718"
            },
            "orbiting_body": "Earth"
        }
    ],
    "orbital_data": {
        "orbit_id": "3",
        "orbit_determination_date": "2020-01-23 10:54:56",
        "first_observation_date": "2020-01-18",
        "last_observation_date": "2020-01-23",
        "data_arc_in_days": 5,
        "observations_used": 26,
        "orbit_uncertainty": "7",
        "minimum_orbit_intersection": ".00878843",
        "jupiter_tisserand_invariant": "3.990",
        "epoch_osculation": "2459000.5",
        "eccentricity": ".4713022761526775",
        "semi_major_axis": "1.74798096686651",
        "inclination": "7.623902929847069",
        "ascending_node_longitude": "119.9750358363913",
        "orbital_period": "844.118611792753",
        "perihelion_distance": ".924153558510766",
        "perihelion_argument": "319.5869385926869",
        "aphelion_distance": "2.571808375222254",
        "perihelion_time": "2458837.215912081958",
        "mean_anomaly": "69.6374547714952",
        "mean_motion": ".4264803488166504",
        "equinox": "J2000",
        "orbit_class": {
            "orbit_class_type": "APO",
            "orbit_class_description": "Near-Earth asteroid orbits which cross the Earth’s orbit similar to that of 1862 Apollo",
            "orbit_class_range": "a (semi-major axis) > 1.0 AU; q (perihelion) < 1.017 AU"
        }
    },
    "is_sentry_object": false
}